ALOS-4 (DAICHI-4)       
1 60182U 24123A   24205.11022220  .00004600  00000+0  62063-3 0  9991
2 60182  97.9221 301.2591 0001931  93.5502 266.5931 14.79597566  3259
